[{"OBJECT_NAME":"STARLINK-35240","OBJECT_ID":"2025-211D","EPOCH":"2026-03-09T17:20:03.241536","MEAN_MOTION":15.05647537,"ECCENTRICITY":0.0001274,"INCLINATION":97.6033,"RA_OF_ASC_NODE":114.048,"ARG_OF_PERICENTER":98.84,"MEAN_ANOMALY":261.2971,"EPHEMERIS_TYPE":0,"CLASSIFICATION_TYPE":"U","NORAD_CAT_ID":65655,"ELEMENT_SET_NO":999,"REV_AT_EPOCH":2704,"BSTAR":0.00011231414,"MEAN_MOTION_DOT":1.56e-5,"MEAN_MOTION_DDOT":0},{"OBJECT_NAME":"CZ-6A DEB","OBJECT_ID":"2024-140WE","EPOCH":"2026-03-09T15:35:26.811168","MEAN_MOTION":14.69407042,"ECCENTRICITY":0.0170896,"INCLINATION":89.1194,"RA_OF_ASC_NODE":289.5546,"ARG_OF_PERICENTER":162.1141,"MEAN_ANOMALY":198.6195,"EPHEMERIS_TYPE":0,"CLASSIFICATION_TYPE":"U","NORAD_CAT_ID":61365,"ELEMENT_SET_NO":999,"REV_AT_EPOCH":8091,"BSTAR":0.00023823,"MEAN_MOTION_DOT":1.788e-5,"MEAN_MOTION_DDOT":0}]
